NORAD_CAT_ID,OBJECT_NAME,OBJECT_TYPE,EPOCH,MEAN_MOTION,ECCENTRICITY,INCLINATION,RA_OF_ASC_NODE,ARG_OF_PERICENTER,MEAN_ANOMALY,BSTAR,MEAN_MOTION_DOT,MEAN_MOTION_DDOT,TLE_LINE0,TLE_LINE1,TLE_LINE2,SEMIMAJOR_AXIS,PERIOD,APOGEE,PERIGEE,DECAYED
52288.0,STARLINK-3776,PAYLOAD,2024-02-22 13:40:46,15.08798576,0.0001164,53.2154,208.5813,126.4313,233.6786,0.0014631,0.00023047,0.0,0 STARLINK-3776,1 52288U 22041AD  24053.56998774  .00023047  00000-0  14631-2 0  9996,2 52288  53.2154 208.5813 0001164 126.4313 233.6786 15.08798576101863,6918.007,95.44,540.677,539.067,0.0
52288.0,STARLINK-3776,PAYLOAD,2024-02-22 16:51:30,15.08854574,0.0001345,53.2162,207.9879,93.2374,266.8772,-8.4478e-05,-1.633e-05,0.0,0 STARLINK-3776,1 52288U 22041AD  24053.70243524 -.00001633  00000-0 -84478-4 0  9995,2 52288  53.2162 207.9879 0001345  93.2374 266.8772 15.08854574101882,6917.836,95.437,540.631,538.77,0.0
52288.0,STARLINK-3776,PAYLOAD,2024-02-23 13:31:32,15.08834065,0.000144,53.2168,204.1214,99.5164,260.5991,7.2437e-06,-1.73e-06,0.0,0 STARLINK-3776,1 52288U 22041AD  24054.56356678 -.00000173  00000-0  72437-5 0  9995,2 52288  53.2168 204.1214 0001440  99.5164 260.5991 15.08834065102015,6917.899,95.438,540.76,538.767,0.0
52288.0,STARLINK-3776,PAYLOAD,2024-02-23 16:42:18,15.08836941,0.000138,53.2164,203.5299,85.2246,274.8904,3.9168e-05,3.35e-06,0.0,0 STARLINK-3776,1 52288U 22041AD  24054.69604528  .00000335  00000-0  39168-4 0  9991,2 52288  53.2164 203.5299 0001380  85.2246 274.8904 15.08836941103257,6917.89,95.438,540.709,538.8,0.0
52288.0,STARLINK-3776,PAYLOAD,2024-02-24 13:22:18,15.08845036,0.0001348,53.2167,199.663,86.7452,273.3694,0.00011444,1.534e-05,0.0,0 STARLINK-3776,1 52288U 22041AD  24055.55715954  .00001534  00000-0  11444-3 0  9991,2 52288  53.2167 199.6630 0001348  86.7452 273.3694 15.08845036102167,6917.865,95.437,540.663,538.797,0.0
52288.0,STARLINK-3776,PAYLOAD,2024-02-24 16:33:04,15.08848361,0.000125,53.2165,199.0703,82.5823,277.5311,0.00018437,2.648e-05,0.0,0 STARLINK-3776,1 52288U 22041AD  24055.68963582  .00002648  00000-0  18437-3 0  9993,2 52288  53.2165 199.0703 0001250  82.5823 277.5311 15.08848361103402,6917.855,95.437,540.585,538.855,0.0
52288.0,STARLINK-3776,PAYLOAD,2024-02-25 13:13:05,15.0884373,0.0001305,53.2171,195.2082,100.3923,259.7216,5.9938e-05,6.66e-06,0.0,0 STARLINK-3776,1 52288U 22041AD  24056.55076177  .00000666  00000-0  59938-4 0  9995,2 52288  53.2171 195.2082 0001305 100.3923 259.7216 15.08843730103533,6917.869,95.437,540.637,538.831,0.0
52288.0,STARLINK-3776,PAYLOAD,2024-02-25 14:48:28,15.08844186,0.0001377,53.2174,194.9111,105.7327,254.3817,6.934e-05,8.16e-06,0.0,0 STARLINK-3776,1 52288U 22041AD  24056.61700069  .00000816  00000-0  69340-4 0  9991,2 52288  53.2174 194.9111 0001377 105.7327 254.3817 15.08844186102321,6917.868,95.437,540.685,538.78,0.0
52288.0,STARLINK-3776,PAYLOAD,2024-02-25 19:34:37,15.08852545,0.0001403,53.2162,194.0149,103.2911,256.8237,0.0001856,2.668e-05,0.0,0 STARLINK-3776,1 52288U 22041AD  24056.81571176  .00002668  00000-0  18560-3 0  9992,2 52288  53.2162 194.0149 0001403 103.2911 256.8237 15.08852545103571,6917.842,95.437,540.678,538.736,0.0
52288.0,STARLINK-3776,PAYLOAD,2024-02-26 01:56:12,15.08822934,0.0001154,53.2165,192.8265,101.962,258.1502,-7.5328e-05,-1.486e-05,0.0,0 STARLINK-3776,1 52288U 22041AD  24057.08069655 -.00001486  00000-0 -75328-4 0  9991,2 52288  53.2165 192.8265 0001154 101.9620 258.1502 15.08822934103618,6917.933,95.439,540.596,538.999,0.0
52288.0,STARLINK-3776,PAYLOAD,2024-02-26 14:39:17,15.08829455,0.0001213,53.2148,190.4469,98.0731,262.0399,-0.00011177,-2.066e-05,0.0,0 STARLINK-3776,1 52288U 22041AD  24057.61061768 -.00002066  00000-0 -11177-3 0  9993,2 52288  53.2148 190.4469 0001213  98.0731 262.0399 15.08829455102470,6917.913,95.438,540.617,538.938,0.0
52288.0,STARLINK-3776,PAYLOAD,2024-02-26 16:14:40,15.08832706,0.0001327,53.2165,190.1482,91.406,268.7084,-9.5705e-05,-1.81e-05,0.0,0 STARLINK-3776,1 52288U 22041AD  24057.67685537 -.00001810  00000-0 -95705-4 0  9991,2 52288  53.2165 190.1482 0001327  91.4060 268.7084 15.08832706103703,6917.903,95.438,540.686,538.85,0.0
52288.0,STARLINK-3776,PAYLOAD,2024-02-27 08:08:31,15.08847209,0.0001767,53.2182,187.1723,115.9399,244.1775,-4.6345e-05,-1.026e-05,0.0,0 STARLINK-3776,1 52288U 22041AD  24058.33924889 -.00001026  00000-0 -46345-4 0  9996,2 52288  53.2182 187.1723 0001767 115.9399 244.1775 15.08847209103801,6917.858,95.437,540.946,538.501,0.0
52288.0,STARLINK-3776,PAYLOAD,2024-02-27 14:30:03,15.08846855,0.0001498,53.2164,185.9852,103.0614,257.0546,0.00015262,2.142e-05,0.0,0 STARLINK-3776,1 52288U 22041AD  24058.60420469  .00002142  00000-0  15262-3 0  9992,2 52288  53.2164 185.9852 0001498 103.0614 257.0546 15.08846855102623,6917.859,95.437,540.761,538.688,0.0
52288.0,STARLINK-3776,PAYLOAD,2024-02-27 17:40:49,15.08852834,0.0001621,53.2166,185.3895,112.8507,247.2656,0.00046918,7.189e-05,0.0,0 STARLINK-3776,1 52288U 22041AD  24058.73668433  .00007189  00000-0  46918-3 0  9999,2 52288  53.2166 185.3895 0001621 112.8507 247.2656 15.08852834102642,6917.841,95.437,540.828,538.585,0.0
52288.0,STARLINK-3776,PAYLOAD,2024-02-28 12:45:27,15.08836558,0.0002088,53.2166,181.8159,119.6249,240.4951,0.00016201,2.291e-05,0.0,0 STARLINK-3776,1 52288U 22041AD  24059.53157385  .00002291  00000-0  16201-3 0  9998,2 52288  53.2166 181.8159 0002088 119.6249 240.4951 15.08836558103988,6917.891,95.438,541.2,538.311,0.0
52288.0,STARLINK-3776,PAYLOAD,2024-02-28 14:20:51,15.08835573,0.0001286,53.2162,181.5244,86.6407,273.4732,0.00019889,2.878e-05,0.0,0 STARLINK-3776,1 52288U 22041AD  24059.59781670  .00002878  00000-0  19889-3 0  9990,2 52288  53.2162 181.5244 0001286  86.6407 273.4732 15.08835573102779,6917.894,95.438,540.649,538.869,0.0
52288.0,STARLINK-3776,PAYLOAD,2024-02-29 14:11:38,15.08847071,0.0001371,53.2157,177.0627,84.4544,275.6604,0.00034373,5.188e-05,0.0,0 STARLINK-3776,1 52288U 22041AD  24060.59141438  .00005188  00000-0  34373-3 0  9996,2 52288  53.2157 177.0627 0001371  84.4544 275.6604 15.08847071102926,6917.859,95.437,540.672,538.775,0.0
52288.0,STARLINK-3776,PAYLOAD,2024-02-29 17:22:24,15.08852727,0.0001412,53.216,176.4666,86.2859,273.8294,0.00048687,7.472e-05,0.0,0 STARLINK-3776,1 52288U 22041AD  24060.72389260  .00007472  00000-0  48687-3 0  9999,2 52288  53.2160 176.4666 0001412  86.2859 273.8294 15.08852727104168,6917.841,95.437,540.683,538.73,0.0
52288.0,STARLINK-3776,PAYLOAD,2024-03-01 14:02:25,15.08854169,0.0001303,53.2151,172.6026,80.3974,279.7165,0.00049226,7.558e-05,0.0,0 STARLINK-3776,1 52288U 22041AD  24061.58501239  .00007558  00000-0  49226-3 0  9991,2 52288  53.2151 172.6026 0001303  80.3974 279.7165 15.08854169103071,6917.837,95.437,540.603,538.801,0.0
52288.0,STARLINK-3776,PAYLOAD,2024-03-02 12:17:48,15.08850633,0.0001398,53.2159,168.4399,82.5887,277.5264,0.00022637,3.318e-05,0.0,0 STARLINK-3776,1 52288U 22041AD  24062.51236937  .00003318  00000-0  22637-3 0  9992,2 52288  53.2159 168.4399 0001398  82.5887 277.5264 15.08850633104435,6917.848,95.437,540.68,538.746,0.0
52288.0,STARLINK-3776,PAYLOAD,2024-03-02 13:53:11,15.08851575,0.0001422,53.2161,168.1427,83.4187,276.6966,0.00024115,3.553e-05,0.0,0 STARLINK-3776,1 52288U 22041AD  24062.57860862  .00003553  00000-0  24115-3 0  9992,2 52288  53.2161 168.1427 0001422  83.4187 276.6966 15.08851575103229,6917.845,95.437,540.694,538.726,0.0
52288.0,STARLINK-3776,PAYLOAD,2024-03-03 05:47:03,15.08842633,0.0001453,53.2168,165.1711,82.8072,277.3085,2.7792e-05,1.54e-06,0.0,0 STARLINK-3776,1 52288U 22041AD  24063.24100961  .00000154  00000-0  27792-4 0  9993,2 52288  53.2168 165.1711 0001453  82.8072 277.3085 15.08842633104540,6917.872,95.437,540.743,538.732,0.0
52288.0,STARLINK-3776,PAYLOAD,2024-03-03 12:08:35,15.08841683,0.0001565,53.2171,163.9803,101.1978,258.919,1.4651e-05,-5.5e-07,0.0,0 STARLINK-3776,1 52288U 22041AD  24063.50597009 -.00000055  00000-0  14651-4 0  9996,2 52288  53.2171 163.9803 0001565 101.1978 258.9190 15.08841683103361,6917.875,95.437,540.823,538.658,0.0
52288.0,STARLINK-3776,PAYLOAD,2024-03-04 11:59:21,15.08856423,0.0001322,53.2153,159.5202,97.8546,262.2596,0.00018303,2.627e-05,0.0,0 STARLINK-3776,1 52288U 22041AD  24064.49955919  .00002627  00000-0  18303-3 0  9996,2 52288  53.2153 159.5202 0001322  97.8546 262.2596 15.08856423104736,6917.83,95.437,540.61,538.781,0.0
52288.0,STARLINK-3776,PAYLOAD,2024-03-04 13:34:45,15.08856898,0.0001371,53.2151,159.2232,101.8185,258.2961,0.00024843,3.67e-05,0.0,0 STARLINK-3776,1 52288U 22041AD  24064.56579923  .00003670  00000-0  24843-3 0  9996,2 52288  53.2151 159.2232 0001371 101.8185 258.2961 15.08856898103526,6917.829,95.436,540.642,538.745,0.0
52288.0,STARLINK-3776,PAYLOAD,2024-03-05 13:25:34,15.08821448,0.0001537,53.2152,154.7671,111.5939,248.5217,-0.00015425,-2.741e-05,0.0,0 STARLINK-3776,1 52288U 22041AD  24065.55942204 -.00002741  00000-0 -15425-3 0  9998,2 52288  53.2152 154.7671 0001537 111.5939 248.5217 15.08821448103678,6917.937,95.439,540.865,538.739,0.0
52288.0,STARLINK-3776,PAYLOAD,2024-03-05 15:00:57,15.08822639,0.000146,53.2165,154.4658,88.6065,271.5094,-0.00016453,-2.904e-05,0.0,0 STARLINK-3776,1 52288U 22041AD  24065.62566207 -.00002904  00000-0 -16453-3 0  9994,2 52288  53.2165 154.4658 0001460  88.6065 271.5094 15.08822639104902,6917.933,95.439,540.808,538.788,0.0
52288.0,STARLINK-3776,PAYLOAD,2024-03-06 11:40:58,15.08834258,0.0001517,53.2152,150.5998,88.8932,271.2234,0.00037424,5.672e-05,0.0,0 STARLINK-3776,1 52288U 22041AD  24066.48678826  .00005672  00000-0  37424-3 0  9994,2 52288  53.2152 150.5998 0001517  88.8932 271.2234 15.08834258105038,6917.898,95.438,540.812,538.713,0.0
52288.0,STARLINK-3776,PAYLOAD,2024-03-06 13:16:21,15.08838833,0.0001606,53.2164,150.3035,84.5308,275.5867,0.00051445,7.909e-05,0.0,0 STARLINK-3776,1 52288U 22041AD  24066.55302851  .00007909  00000-0  51445-3 0  9998,2 52288  53.2164 150.3035 0001606  84.5308 275.5867 15.08838833103827,6917.884,95.438,540.86,538.638,0.0
